{"type": "FeatureCollection", "features": [ {"type": "Feature", "properties": {"norad_id": 32289, "name": "YAOGAN-3", "group": "resource", "lat": -53.674979619737584, "lon": 36.47044690276471, "alt_km": 605.9092447230378, "timestamp": "2025-12-25T03:55:55.962848+00:00", "meta": {"OBJECT_NAME": "YAOGAN-3", "OBJECT_ID": "2007-055A", "EPOCH": "2025-12-24T20:07:01.062336", "MEAN_MOTION": 14.89913716, "ECCENTRICITY": 0.0001301, "INCLINATION": 97.8353, "RA_OF_ASC_NODE": 25.3531, "ARG_OF_PERICENTER": 85.9042, "MEAN_ANOMALY": 274.2325, "EPHEMERIS_TYPE": 0, "CLASSIFICATION_TYPE": "U", "NORAD_CAT_ID": 32289, "ELEMENT_SET_NO": 999, "REV_AT_EPOCH": 97989, "BSTAR": 0.00020274, "MEAN_MOTION_DOT": 1.895e-05, "MEAN_MOTION_DDOT": 0}, "tle": {"line1": "1 32289U 07055A   25358.83820674  .00001895  00000+0  20274-3 0  9992", "line2": "2 32289  97.8353  25.3531 0001301  85.9042 274.2325 14.89913716979899"}}, "geometry": {"type": "Point", "coordinates": [36.47044690276471, -53.674979619737584]}}, {"type": "Feature", "properties": {"norad_id": 32376, "name": "COSMO-SKYMED 2", "group": "resource", "lat": -58.53493329269721, "lon": -12.780904955389069, "alt_km": 630.4972357591614, "timestamp": "2025-12-25T03:55:55.962860+00:00", "meta": {"OBJECT_NAME": "COSMO-SKYMED 2", "OBJECT_ID": "2007-059A", "EPOCH": "2025-12-24T20:22:28.206048", "MEAN_MOTION": 14.82156948, "ECCENTRICITY": 0.000131, "INCLINATION": 97.8805, "RA_OF_ASC_NODE": 179.9904, "ARG_OF_PERICENTER": 82.4495, "MEAN_ANOMALY": 277.6867, "EPHEMERIS_TYPE": 0, "CLASSIFICATION_TYPE": "U", "NORAD_CAT_ID": 32376, "ELEMENT_SET_NO": 999, "REV_AT_EPOCH": 97617, "BSTAR": 7.2735e-05, "MEAN_MOTION_DOT": 5.27e-06, "MEAN_MOTION_DDOT": 0}, "tle": {"line1": "1 32376U 07059A   25358.84893757  .00000527  00000+0  72735-4 0  9997", "line2": "2 32376  97.8805 179.9904 0001310  82.4495 277.6867 14.82156948976177"}}, "geometry": {"type": "Point", "coordinates": [-12.780904955389069, -58.53493329269721]}}, {"type": "Feature", "properties": {"norad_id": 32382, "name": "RADARSAT-2", "group": "resource", "lat": 18.50539378914716, "lon": 0.6764709805420788, "alt_km": 791.7016048465784, "timestamp": "2025-12-25T03:55:55.962870+00:00", "meta": {"OBJECT_NAME": "RADARSAT-2", "OBJECT_ID": "2007-061A", "EPOCH": "2025-12-24T21:07:39.825120", "MEAN_MOTION": 14.29983981, "ECCENTRICITY": 0.0001131, "INCLINATION": 98.5795, "RA_OF_ASC_NODE": 3.2934, "ARG_OF_PERICENTER": 85.5021, "MEAN_ANOMALY": 274.629, "EPHEMERIS_TYPE": 0, "CLASSIFICATION_TYPE": "U", "NORAD_CAT_ID": 32382, "ELEMENT_SET_NO": 999, "REV_AT_EPOCH": 94104, "BSTAR": -6.7598e-05, "MEAN_MOTION_DOT": -2.18e-06, "MEAN_MOTION_DDOT": 0}, "tle": {"line1": "1 32382U 07061A   25358.88032205 -.00000218  00000+0 -67598-4 0  9994", "line2": "2 32382  98.5795   3.2934 0001131  85.5021 274.6290 14.29983981941043"}}, "geometry": {"type": "Point", "coordinates": [0.6764709805420788, 18.50539378914716]}}, {"type": "Feature", "properties": {"norad_id": 32783, "name": "CARTOSAT-2A", "group": "resource", "lat": -54.925762566804835, "lon": -142.646470631707, "alt_km": 639.3656717075637, "timestamp": "2025-12-25T03:55:55.962882+00:00", "meta": {"OBJECT_NAME": "CARTOSAT-2A", "OBJECT_ID": "2008-021A", "EPOCH": "2025-12-24T20:22:26.657760", "MEAN_MOTION": 14.78953502, "ECCENTRICITY": 0.0010979, "INCLINATION": 97.7909, "RA_OF_ASC_NODE": 48.2929, "ARG_OF_PERICENTER": 324.4, "MEAN_ANOMALY": 35.6478, "EPHEMERIS_TYPE": 0, "CLASSIFICATION_TYPE": "U", "NORAD_CAT_ID": 32783, "ELEMENT_SET_NO": 999, "REV_AT_EPOCH": 95303, "BSTAR": 0.00014682, "MEAN_MOTION_DOT": 1.034e-05, "MEAN_MOTION_DDOT": 0}, "tle": {"line1": "1 32783U 08021A   25358.84891965  .00001034  00000+0  14682-3 0  9998", "line2": "2 32783  97.7909  48.2929 0010979 324.4000  35.6478 14.78953502953036"}}, "geometry": {"type": "Point", "coordinates": [-142.646470631707, -54.925762566804835]}}, {"type": "Feature", "properties": {"norad_id": 33320, "name": "HUANJING 1A (HJ-1A)", "group": "resource", "lat": -58.89113974695852, "lon": -0.17847871365703727, "alt_km": 617.8091645470731, "timestamp": "2025-12-25T03:55:55.962893+00:00", "meta": {"OBJECT_NAME": "HUANJING 1A (HJ-1A)", "OBJECT_ID": "2008-041A", "EPOCH": "2025-12-24T21:43:29.358624", "MEAN_MOTION": 14.83429214, "ECCENTRICITY": 0.0019219, "INCLINATION": 97.6549, "RA_OF_ASC_NODE": 346.6956, "ARG_OF_PERICENTER": 355.5521, "MEAN_ANOMALY": 4.5519, "EPHEMERIS_TYPE": 0, "CLASSIFICATION_TYPE": "U", "NORAD_CAT_ID": 33320, "ELEMENT_SET_NO": 999, "REV_AT_EPOCH": 93256, "BSTAR": 0.00014105, "MEAN_MOTION_DOT": 1.11e-05, "MEAN_MOTION_DDOT": 0}, "tle": {"line1": "1 33320U 08041A   25358.90520091  .00001110  00000+0  14105-3 0  9999", "line2": "2 33320  97.6549 346.6956 0019219 355.5521   4.5519 14.83429214932567"}}, "geometry": {"type": "Point", "coordinates": [-0.17847871365703727, -58.89113974695852]}}, {"type": "Feature", "properties": {"norad_id": 33321, "name": "HUANJING 1B (HJ-1B)", "group": "resource", "lat": 43.171192040042826, "lon": 177.84229913850245, "alt_km": 621.2246151896461, "timestamp": "2025-12-25T03:55:55.962904+00:00", "meta": {"OBJECT_NAME": "HUANJING 1B (HJ-1B)", "OBJECT_ID": "2008-041B", "EPOCH": "2025-12-24T20:50:41.493984", "MEAN_MOTION": 14.82851635, "ECCENTRICITY": 0.0037699, "INCLINATION": 97.6405, "RA_OF_ASC_NODE": 350.3255, "ARG_OF_PERICENTER": 37.3201, "MEAN_ANOMALY": 323.0621, "EPHEMERIS_TYPE": 0, "CLASSIFICATION_TYPE": "U", "NORAD_CAT_ID": 33321, "ELEMENT_SET_NO": 999, "REV_AT_EPOCH": 93257, "BSTAR": 0.0001777, "MEAN_MOTION_DOT": 1.405e-05, "MEAN_MOTION_DDOT": 0}, "tle": {"line1": "1 33321U 08041B   25358.86853581  .00001405  00000+0  17770-3 0  9996", "line2": "2 33321  97.6405 350.3255 0037699  37.3201 323.0621 14.82851635932574"}}, "geometry": {"type": "Point", "coordinates": [177.84229913850245, 43.171192040042826]}}, {"type": "Feature", "properties": {"norad_id": 33331, "name": "GEOEYE 1", "group": "resource", "lat": 33.29360420874895, "lon": 64.9046743338249, "alt_km": 677.9432283313372, "timestamp": "2025-12-25T03:55:55.962915+00:00", "meta": {"OBJECT_NAME": "GEOEYE 1", "OBJECT_ID": "2008-042A", "EPOCH": "2025-12-24T19:34:52.591872", "MEAN_MOTION": 14.6471583, "ECCENTRICITY": 0.0002984, "INCLINATION": 98.1237, "RA_OF_ASC_NODE": 69.9437, "ARG_OF_PERICENTER": 232.3946, "MEAN_ANOMALY": 127.6986, "EPHEMERIS_TYPE": 0, "CLASSIFICATION_TYPE": "U", "NORAD_CAT_ID": 33331, "ELEMENT_SET_NO": 999, "REV_AT_EPOCH": 92462, "BSTAR": 0.00011647, "MEAN_MOTION_DOT": 5.73e-06, "MEAN_MOTION_DDOT": 0}, "tle": {"line1": "1 33331U 08042A   25358.81588648  .00000573  00000+0  11647-3 0  9994", "line2": "2 33331  98.1237  69.9437 0002984 232.3946 127.6986 14.64715830924626"}}, "geometry": {"type": "Point", "coordinates": [64.9046743338249, 33.29360420874895]}}, {"type": "Feature", "properties": {"norad_id": 33396, "name": "THEOS", "group": "resource", "lat": 56.463354474412725, "lon": 43.7121848074632, "alt_km": 818.8742352630734, "timestamp": "2025-12-25T03:55:55.962925+00:00", "meta": {"OBJECT_NAME": "THEOS", "OBJECT_ID": "2008-049A", "EPOCH": "2025-12-24T20:53:55.372992", "MEAN_MOTION": 14.20098444, "ECCENTRICITY": 0.0001198, "INCLINATION": 98.5845, "RA_OF_ASC_NODE": 56.6015, "ARG_OF_PERICENTER": 93.2794, "MEAN_ANOMALY": 266.852, "EPHEMERIS_TYPE": 0, "CLASSIFICATION_TYPE": "U", "NORAD_CAT_ID": 33396, "ELEMENT_SET_NO": 999, "REV_AT_EPOCH": 89322, "BSTAR": 3.3142e-05, "MEAN_MOTION_DOT": 2.8e-07, "MEAN_MOTION_DDOT": 0}, "tle": {"line1": "1 33396U 08049A   25358.87077978  .00000028  00000+0  33142-4 0  9997", "line2": "2 33396  98.5845  56.6015 0001198  93.2794 266.8520 14.20098444893220"}}, "geometry": {"type": "Point", "coordinates": [43.7121848074632, 56.463354474412725]}}, {"type": "Feature", "properties": {"norad_id": 33412, "name": "COSMO-SKYMED 3", "group": "resource", "lat": -5.605348768305228, "lon": -149.4588613270311, "alt_km": 562.5039919436495, "timestamp": "2025-12-25T03:55:55.962936+00:00", "meta": {"OBJECT_NAME": "COSMO-SKYMED 3", "OBJECT_ID": "2008-054A", "EPOCH": "2025-12-24T19:58:52.970592", "MEAN_MOTION": 15.05460006, "ECCENTRICITY": 0.0017132, "INCLINATION": 97.8454, "RA_OF_ASC_NODE": 209.429, "ARG_OF_PERICENTER": 132.5208, "MEAN_ANOMALY": 227.7469, "EPHEMERIS_TYPE": 0, "CLASSIFICATION_TYPE": "U", "NORAD_CAT_ID": 33412, "ELEMENT_SET_NO": 999, "REV_AT_EPOCH": 93069, "BSTAR": 0.0004295, "MEAN_MOTION_DOT": 6.126e-05, "MEAN_MOTION_DDOT": 0}, "tle": {"line1": "1 33412U 08054A   25358.83255753  .00006126  00000+0  42950-3 0  9998", "line2": "2 33412  97.8454 209.4290 0017132 132.5208 227.7469 15.05460006930694"}}, "geometry": {"type": "Point", "coordinates": [-149.4588613270311, -5.605348768305228]}}, {"type": "Feature", "properties": {"norad_id": 33446, "name": "YAOGAN-4", "group": "resource", "lat": 41.203833056823036, "lon": -77.85864702203114, "alt_km": 622.358050273273, "timestamp": "2025-12-25T03:55:55.962947+00:00", "meta": {"OBJECT_NAME": "YAOGAN-4", "OBJECT_ID": "2008-061A", "EPOCH": "2025-12-24T19:38:47.516928", "MEAN_MOTION": 14.82716251, "ECCENTRICITY": 0.0012984, "INCLINATION": 97.9197, "RA_OF_ASC_NODE": 288.8002, "ARG_OF_PERICENTER": 280.4799, "MEAN_ANOMALY": 79.4951, "EPHEMERIS_TYPE": 0, "CLASSIFICATION_TYPE": "U", "NORAD_CAT_ID": 33446, "ELEMENT_SET_NO": 999, "REV_AT_EPOCH": 91982, "BSTAR": 0.00017083, "MEAN_MOTION_DOT": 1.327e-05, "MEAN_MOTION_DDOT": 0}, "tle": {"line1": "1 33446U 08061A   25358.81860552  .00001327  00000+0  17083-3 0  9997", "line2": "2 33446  97.9197 288.8002 0012984 280.4799  79.4951 14.82716251919826"}}, "geometry": {"type": "Point", "coordinates": [-77.85864702203114, 41.203833056823036]}}]}